0 FENGYUN 1C DEB
1 31211U 99025BKR 13281.86264720  .00000981  00000-0  60033-3 0  3877
2 31211 099.0595 305.3166 0060088 079.9211 280.8675 14.07368174336179
0 FENGYUN 1C DEB
1 31211U 99025BKR 13284.27982779  .00001005  00000-0  61423-3 0  3889
2 31211 099.0587 307.7373 0059842 072.7773 287.9978 14.07373722336513
0 FENGYUN 1C DEB
1 31211U 99025BKR 13287.26573904  .00001049  00000-0  63998-3 0  3895
2 31211 099.0585 310.7285 0060271 063.3893 297.3447 14.07381083336935
0 FENGYUN 1C DEB
1 31211U 99025BKR 13289.89617049  .00001175  00000-0  71296-3 0  3907
2 31211 099.0575 313.3651 0061535 055.1493 305.5676 14.07389660337306
0 FENGYUN 1C DEB
1 31211U 99025BKR 13291.88674981  .00001323  00000-0  79975-3 0  3915
2 31211 099.0597 315.3637 0060676 052.0319 308.7079 14.07397762337588
0 FENGYUN 1C DEB
1 31211U 99025BKR 13295.29913494  .00001435  00000-0  86530-3 0  3929
2 31211 099.0602 318.7846 0059881 043.2387 317.3656 14.07408978338060
